ELYSIUM STAR 2 & LFF    
1 43760U 18099C   24223.16345071  .00077135  00000+0  25046-2 0  9998
2 43760  97.5115 291.2605 0005648  99.2933 260.8947 15.31626168311485
